SENTINEL-1D             
1 66315U 25251A   25337.60471144  .00000337  00000+0  80054-4 0  9996
2 66315  98.1924 342.7567 0002645 152.8376 207.2963 14.59911030  4207
QPS-SAR-14 (YACHIHOKO-I)
1 66316U 25252A   25337.46606151  .00008256  00000+0  71031-3 0  9992
2 66316  42.0031 126.2285 0006838  87.0305 273.1302 14.97541562  4149
ELECTRON R/B            
1 66317U 25252B   25337.74603822  .03381088  81863-5  17947-2 0  9993
2 66317  41.9860 105.3311 0081081  73.5218 287.4538 16.11372677  4407
STARLINK-35442          
1 66319U 25253A   25337.91670139 -.00290384  00000+0 -71803-2 0  9996
2 66319  43.0012  36.7208 0001707 266.1201 279.1335 15.40830376  5604
STARLINK-34616          
1 66320U 25253B   25337.46907921  .00126267  00000+0  21204-2 0  9996
2 66320  42.9968  38.9560 0003704 219.5351 140.5240 15.50616353  5576
STARLINK-34615          
1 66321U 25253C   25337.91670139 -.02383257  00000+0 -40846-1 0  9995
2 66321  43.0005  35.5446 0001375 266.1940  39.6851 15.54160766  5551
STARLINK-35292          
1 66322U 25253D   25337.91670139  .00050204  00000+0  12023-2 0  9992
2 66322  43.0009  36.6281 0001376 273.9096 308.6259 15.40671490  5517
STARLINK-35309          
1 66323U 25253E   25337.53071268  .00097932  00000+0  16515-2 0  9998
2 66323  42.9999  38.5588 0001736 269.0685  90.9976 15.50627350  5508
STARLINK-35506          
1 66324U 25253F   25337.53208834  .00026255  00000+0  45167-3 0  9996
2 66324  43.0006  38.5692 0000870 276.2742  83.8019 15.50590090  5507
STARLINK-35504          
1 66325U 25253G   25337.91670139 -.00085857  00000+0 -20700-2 0  9990
2 66325  43.0007  36.4170 0001387 295.3459  14.3045 15.40718243  5518
STARLINK-35479          
1 66326U 25253H   25337.65919945  .00098564  00000+0  16625-2 0  9991
2 66326  43.0004  37.8005 0001166 257.3390 102.7340 15.50617936  5524
STARLINK-35507          
1 66327U 25253J   25337.53243552  .00148855  00000+0  24916-2 0  9994
2 66327  43.0002  38.5738 0001497 351.1702   8.9131 15.50619877  5500
STARLINK-35460          
1 66328U 25253K   25337.91670139 -.00076307  00000+0 -18372-2 0  9995
2 66328  43.0006  36.3840 0001623 265.0223  57.0753 15.40708749  5609
STARLINK-35505          
1 66329U 25253L   25337.53276708  .00120414  00000+0  20207-2 0  9995
2 66329  43.0000  38.5759 0002301 270.1873  89.8723 15.50665124  5508
STARLINK-35512          
1 66330U 25253M   25337.91670139 -.00203449  00000+0 -49878-2 0  9992
2 66330  43.0009  36.5672 0001112 245.0251   2.5131 15.40737673  5515
STARLINK-35257          
1 66331U 25253N   25337.52831291  .00111424  00000+0  18759-2 0  9991
2 66331  42.9995  38.5379 0001762 289.6299  70.4371 15.50612497  5507
STARLINK-35322          
1 66332U 25253P   25337.66255402 -.00395993  00000+0 -89578-2 0  9995
2 66332  42.9998  37.8272 0001814   5.7146 354.3732 15.43882577  5528
STARLINK-35400          
1 66333U 25253Q   25337.52865113  .00115116  00000+0  19355-2 0  9998
2 66333  43.0028  38.5379 0002479 261.0989  98.9590 15.50633816  5500
STARLINK-35407          
1 66334U 25253R   25338.18956366  .00124991  00000+0  29412-2 0  9999
2 66334  42.9992  34.9051 0000611 285.6311  74.4478 15.40796899  5608
STARLINK-35417          
1 66335U 25253S   25338.00002315 -.00078998  00000+0 -19018-2 0  9995
2 66335  43.0009  36.1763 0001523 254.3794  58.4875 15.40725454  5528
STARLINK-35404          
1 66336U 25253T   25337.52797206  .00104778  00000+0  17646-2 0  9991
2 66336  42.9975  38.5345 0000871 265.2110  94.8650 15.50633101  5500
STARLINK-34783          
1 66337U 25253U   25338.19852824  .00143610  00000+0  33658-2 0  9993
2 66337  42.9998  34.9717 0005949 289.8926  70.1289 15.40821530  5607
STARLINK-35477          
1 66338U 25253V   25337.23283142  .00094607  00000+0  22359-2 0  9996
2 66338  43.0004  40.6270 0000596 180.5282 179.5573 15.40809844  5458
STARLINK-35443          
1 66339U 25253W   25338.16670139 -.00028895  00000+0 -68737-3 0  9995
2 66339  43.0003  34.8825 0001367 265.4436  29.8145 15.40686767  5606
STARLINK-35218          
1 66340U 25253X   25338.17177388  .00077402  00000+0  13104-2 0  9999
2 66340  43.0005  34.7660 0001819 298.9764  61.0914 15.50617051  5606
STARLINK-35522          
1 66341U 25253Y   25338.16670139 -.02015695  00000+0 -46665-1 0  9998
2 66341  43.0005  34.8460 0001321 262.0223  50.2170 15.45119813  5641
STARLINK-35535          
1 66342U 25253Z   25338.16670139 -.00125921  00000+0 -30534-2 0  9990
2 66342  43.0002  35.0025 0001507 251.6461 353.9009 15.40736258  5550
STARLINK-35467          
1 66343U 25253AA  25338.16670139 -.00109783  00000+0 -26549-2 0  9990
2 66343  43.0004  35.0928 0001217 248.0626 320.1526 15.40744389  5550
STARLINK-35511          
1 66344U 25253AB  25338.16868390  .00010502  00000+0  18448-3 0  9997
2 66344  43.0009  34.7407 0001328 272.0930  87.9778 15.50595895  5602
STARLINK-35440          
1 66345U 25253AC  25338.16670139 -.02009225  00000+0 -48286-1 0  9995
2 66345  43.0005  34.8016 0001189 255.9601  72.1290 15.44024122  5558
STARLINK-35482          
1 66346U 25253AD  25338.16904578  .00209405  00000+0  34722-2 0  9992
2 66346  43.0009  34.7423 0003633 233.2728 126.7799 15.50644517  5608
STARLINK-35438          
1 66347U 25253AE  25337.65302684  .00121573  00000+0  20369-2 0  9997
2 66347  43.0001  37.7488 0001921 295.1094  64.9567 15.50705087  5523
STARLINK-35849          
1 66348U 25254A   25338.16670139 -.02045056  00000+0 -28270-1 0  9992
2 66348  53.1594 317.6897 0001495  89.7080 107.3768 15.60101700  5545
STARLINK-35848          
1 66349U 25254B   25338.16670139 -.02044192  00000+0 -28258-1 0  9999
2 66349  53.1592 317.6853 0001470  92.2513 106.7513 15.60100700  5549
STARLINK-35829          
1 66350U 25254C   25338.16670139 -.02044258  00000+0 -28258-1 0  9994
2 66350  53.1591 317.6812 0001494  93.8561 107.0626 15.60101091  5544
STARLINK-35828          
1 66351U 25254D   25338.16670139 -.02040086  00000+0 -28195-1 0  9990
2 66351  53.1593 317.6773 0001426  95.6635 107.1733 15.60098947  5512
STARLINK-35850          
1 66352U 25254E   25338.16670139 -.02039953  00000+0 -28192-1 0  9999
2 66352  53.1595 317.6730 0001485  91.8394 112.9128 15.60099440  5491
STARLINK-35869          
1 66353U 25254F   25338.16670139 -.02038708  00000+0 -28180-1 0  9994
2 66353  53.1597 317.6686 0001533  94.2757 112.4043 15.60092020  5542
STARLINK-35895          
1 66354U 25254G   25338.16670139 -.00247604  00000+0 -45648-2 0  9999
2 66354  53.1598 318.0681 0001070  78.4562 290.0602 15.49441290  5546
STARLINK-35861          
1 66355U 25254H   25338.16670139 -.02049013  00000+0 -28336-1 0  9990
2 66355  53.1594 317.6605 0001562  84.6514 125.8604 15.60098119  5544
STARLINK-35851          
1 66356U 25254J   25338.16670139 -.02044360  00000+0 -28266-1 0  9993
2 66356  53.1594 317.6559 0001554  95.4296 117.0005 15.60094984  5545
STARLINK-35817          
1 66357U 25254K   25338.16670139 -.02046068  00000+0 -28286-1 0  9993
2 66357  53.1593 317.6520 0001429  96.3935 117.9427 15.60102643  5543
STARLINK-35807          
1 66358U 25254L   25338.16670139 -.02044257  00000+0 -28258-1 0  9991
2 66358  53.1594 317.6476 0001473  93.7102 122.5433 15.60101168  5541
STARLINK-35805          
1 66359U 25254M   25338.16670139 -.02042020  00000+0 -28225-1 0  9992
2 66359  53.1592 317.6442 0001352  98.6121 119.5590 15.60100409  5518
STARLINK-35823          
1 66360U 25254N   25338.16670139 -.02043961  00000+0 -28254-1 0  9991
2 66360  53.1594 317.6354 0001327  96.9140 125.0894 15.60102534  5541
STARLINK-35813          
1 66361U 25254P   25338.16670139 -.02043220  00000+0 -28243-1 0  9998
2 66361  53.1590 317.6400 0001351  97.5976 122.4891 15.60102038  5548
STARLINK-35822          
1 66362U 25254Q   25338.16670139 -.02046969  00000+0 -28305-1 0  9991
2 66362  53.1592 317.6278 0001557  92.1802 133.6668 15.60097143  5547
STARLINK-35806          
1 66363U 25254R   25338.16670139 -.02044051  00000+0 -28256-1 0  9997
2 66363  53.1591 317.6316 0001453  93.5502 130.3710 15.60101049  5517
STARLINK-35797          
1 66364U 25254S   25338.16670139 -.02046457  00000+0 -28293-1 0  9991
2 66364  53.1594 317.6235 0001342  93.4988 134.2555 15.60103167  5541
STARLINK-35827          
1 66365U 25254T   25338.16670139 -.02046059  00000+0 -28286-1 0  9992
2 66365  53.1592 317.6162 0001426  95.9826 135.6049 15.60102785  5515
STARLINK-35845          
1 66366U 25254U   25338.16670139 -.02043538  00000+0 -28251-1 0  9994
2 66366  53.1593 317.6193 0001216  89.2051 140.4674 15.60100585  5541
STARLINK-35846          
1 66367U 25254V   25338.16670139 -.02041957  00000+0 -28224-1 0  9998
2 66367  53.1593 317.6111 0001366  93.6672 139.8375 15.60101002  5495
STARLINK-34861          
1 66368U 25254W   25338.11050802  .00362265  00000+0  23569-2 0  9995
2 66368  53.1567 317.7146 0001183 123.9885 236.1247 15.74346850  4323
STARLINK-35795          
1 66369U 25254X   25338.11084277  .00328479  00000+0  21458-2 0  9993
2 66369  53.1567 317.7168 0003045 147.1731 212.9479 15.74349696  4325
STARLINK-35824          
1 66370U 25254Y   25338.11017455  .00497732  00000+0  31685-2 0  9991
2 66370  53.1568 317.7129 0000367  67.6917 292.4142 15.74459234  4321
STARLINK-35804          
1 66371U 25254Z   25338.17298100  .00346193  00000+0  22578-2 0  9991
2 66371  53.1566 317.3925 0000899  86.8700 273.2423 15.74336178  4334
STARLINK-35821          
1 66372U 25254AA  25338.10983131  .00364005  00000+0  23713-2 0  9994
2 66372  53.1567 317.7113 0001894 102.3262 257.7970 15.74311986  4325
STARLINK-35809          
1 66373U 25254AB  25338.10915848  .00412582  00000+0  26661-2 0  9994
2 66373  53.1566 317.7054 0001053  75.9118 284.2018 15.74358169  4323
STARLINK-35831          
1 66374U 25254AC  25338.10881889  .00443929  00000+0  28555-2 0  9995
2 66374  53.1567 317.7024 0002461 116.3070 243.8203 15.74376092  4325
